{
  "type": "FeatureCollection",
  "features": [
    {
      "type": "Feature",
      "properties": {
        "norad_id": 36036,
        "name": "SMOS",
        "group": "resource",
        "lat": -77.17092947312254,
        "lon": -133.5869515319991,
        "alt_km": 767.3401401671217,
        "timestamp": "2025-12-26T21:25:52.663195+00:00",
        "meta_object_name": "SMOS",
        "meta_object_id": "2009-059A",
        "meta_epoch": "2025-12-26T11:47:46.851936",
        "meta_mean_motion": 14.39753392,
        "meta_eccentricity": 0.00010404,
        "meta_inclination": 98.4382,
        "meta_ra_of_asc_node": 185.3364,
        "meta_arg_of_pericenter": 83.5124,
        "meta_mean_anomaly": 276.6183,
        "meta_ephemeris_type": 0,
        "meta_classification_type": "U",
        "meta_norad_cat_id": 36036,
        "meta_element_set_no": 999,
        "meta_rev_at_epoch": 84860,
        "meta_bstar": 0.00014539134,
        "meta_mean_motion_dot": 4.12e-06,
        "meta_mean_motion_ddot": 0,
        "tle_line1": "1 36036U 09059A   25360.49151449  .00000412  00000+0  14539-3 0  9995",
        "tle_line2": "2 36036  98.4382 185.3364 0001040  83.5124 276.6183 14.39753392848607"
      },
      "geometry": {
        "type": "Point",
        "coordinates": [
          -133.5869515319991,
          -77.17092947312254
        ]
      }
    },
    {
      "type": "Feature",
      "properties": {
        "norad_id": 36110,
        "name": "YAOGAN-7",
        "group": "resource",
        "lat": -56.640969132348495,
        "lon": 50.217999713224735,
        "alt_km": 627.0573768365148,
        "timestamp": "2025-12-26T21:25:52.663206+00:00",
        "meta_object_name": "YAOGAN-7",
        "meta_object_id": "2009-069A",
        "meta_epoch": "2025-12-26T13:51:31.752576",
        "meta_mean_motion": 14.77752381,
        "meta_eccentricity": 0.00235103,
        "meta_inclination": 98.0293,
        "meta_ra_of_asc_node": 242.2846,
        "meta_arg_of_pericenter": 234.1496,
        "meta_mean_anomaly": 125.7531,
        "meta_ephemeris_type": 0,
        "meta_classification_type": "U",
        "meta_norad_cat_id": 36110,
        "meta_element_set_no": 999,
        "meta_rev_at_epoch": 86413,
        "meta_bstar": 0.00010310684,
        "meta_mean_motion_dot": 6.89e-06,
        "meta_mean_motion_ddot": 0,
        "tle_line1": "1 36110U 09069A   25360.57745084  .00000689  00000+0  10311-3 0  9992",
        "tle_line2": "2 36110  98.0293 242.2846 0023510 234.1496 125.7531 14.77752381864133"
      },
      "geometry": {
        "type": "Point",
        "coordinates": [
          50.217999713224735,
          -56.640969132348495
        ]
      }
    },
    {
      "type": "Feature",
      "properties": {
        "norad_id": 36605,
        "name": "TANDEM-X",
        "group": "resource",
        "lat": 67.965487472377,
        "lon": -12.785465794500404,
        "alt_km": 500.65253561968984,
        "timestamp": "2025-12-26T21:25:52.663216+00:00",
        "meta_object_name": "TANDEM-X",
        "meta_object_id": "2010-030A",
        "meta_epoch": "2025-12-26T13:13:25.253472",
        "meta_mean_motion": 15.1915819,
        "meta_eccentricity": 0.00017763,
        "meta_inclination": 97.4455,
        "meta_ra_of_asc_node": 5.7293,
        "meta_arg_of_pericenter": 92.0278,
        "meta_mean_anomaly": 268.116,
        "meta_ephemeris_type": 0,
        "meta_classification_type": "U",
        "meta_norad_cat_id": 36605,
        "meta_element_set_no": 999,
        "meta_rev_at_epoch": 86043,
        "meta_bstar": 6.7415349e-05,
        "meta_mean_motion_dot": 1.349e-05,
        "meta_mean_motion_ddot": 0,
        "tle_line1": "1 36605U 10030A   25360.55098673  .00001349  00000+0  67415-4 0  9996",
        "tle_line2": "2 36605  97.4455   5.7293 0001776  92.0278 268.1160 15.19158190860436"
      },
      "geometry": {
        "type": "Point",
        "coordinates": [
          -12.785465794500404,
          67.965487472377
        ]
      }
    },
    {
      "type": "Feature",
      "properties": {
        "norad_id": 36795,
        "name": "CARTOSAT-2B",
        "group": "resource",
        "lat": -34.772151817607174,
        "lon": -135.9874856657676,
        "alt_km": 648.3221968778653,
        "timestamp": "2025-12-26T21:25:52.663226+00:00",
        "meta_object_name": "CARTOSAT-2B",
        "meta_object_id": "2010-035A",
        "meta_epoch": "2025-12-26T13:57:58.395168",
        "meta_mean_motion": 14.78748016,
        "meta_eccentricity": 0.00125132,
        "meta_inclination": 97.7831,
        "meta_ra_of_asc_node": 49.1608,
        "meta_arg_of_pericenter": 35.6504,
        "meta_mean_anomaly": 324.5541,
        "meta_ephemeris_type": 0,
        "meta_classification_type": "U",
        "meta_norad_cat_id": 36795,
        "meta_element_set_no": 999,
        "meta_rev_at_epoch": 83434,
        "meta_bstar": 0.00021150718,
        "meta_mean_motion_dot": 1.505e-05,
        "meta_mean_motion_ddot": 0,
        "tle_line1": "1 36795U 10035A   25360.58192587  .00001505  00000+0  21151-3 0  9993",
        "tle_line2": "2 36795  97.7831  49.1608 0012513  35.6504 324.5541 14.78748016834342"
      },
      "geometry": {
        "type": "Point",
        "coordinates": [
          -135.9874856657676,
          -34.772151817607174
        ]
      }
    },
    {
      "type": "Feature",
      "properties": {
        "norad_id": 36834,
        "name": "YAOGAN-10",
        "group": "resource",
        "lat": -54.776237741849584,
        "lon": -170.75513955783356,
        "alt_km": 622.5704362629485,
        "timestamp": "2025-12-26T21:25:52.663237+00:00",
        "meta_object_name": "YAOGAN-10",
        "meta_object_id": "2010-038A",
        "meta_epoch": "2025-12-26T15:56:36.013344",
        "meta_mean_motion": 14.84657645,
        "meta_eccentricity": 0.00013362,
        "meta_inclination": 97.9135,
        "meta_ra_of_asc_node": 20.3799,
        "meta_arg_of_pericenter": 78.1006,
        "meta_mean_anomaly": 15.9704,
        "meta_ephemeris_type": 0,
        "meta_classification_type": "U",
        "meta_norad_cat_id": 36834,
        "meta_element_set_no": 999,
        "meta_rev_at_epoch": 83160,
        "meta_bstar": 7.9490482e-05,
        "meta_mean_motion_dot": 6.18e-06,
        "meta_mean_motion_ddot": 0,
        "tle_line1": "1 36834U 10038A   25360.66430571  .00000618  00000+0  79490-4 0  9991",
        "tle_line2": "2 36834  97.9135  20.3799 0001336  78.1006  15.9704 14.84657645831609"
      },
      "geometry": {
        "type": "Point",
        "coordinates": [
          -170.75513955783356,
          -54.776237741849584
        ]
      }
    },
    {
      "type": "Feature",
      "properties": {
        "norad_id": 37216,
        "name": "COSMO-SKYMED 4",
        "group": "resource",
        "lat": 32.03523026666485,
        "lon": 177.03091896148462,
        "alt_km": 620.027029701253,
        "timestamp": "2025-12-26T21:25:52.663247+00:00",
        "meta_object_name": "COSMO-SKYMED 4",
        "meta_object_id": "2010-060A",
        "meta_epoch": "2025-12-26T14:48:17.023680",
        "meta_mean_motion": 14.82164035,
        "meta_eccentricity": 0.00014162,
        "meta_inclination": 97.8808,
        "meta_ra_of_asc_node": 181.7312,
        "meta_arg_of_pericenter": 82.7518,
        "meta_mean_anomaly": 277.3856,
        "meta_ephemeris_type": 0,
        "meta_classification_type": "U",
        "meta_norad_cat_id": 37216,
        "meta_element_set_no": 999,
        "meta_rev_at_epoch": 81900,
        "meta_bstar": 0.00015834758,
        "meta_mean_motion_dot": 1.209e-05,
        "meta_mean_motion_ddot": 0,
        "tle_line1": "1 37216U 10060A   25360.61686370  .00001209  00000+0  15835-3 0  9995",
        "tle_line2": "2 37216  97.8808 181.7312 0001416  82.7518 277.3856 14.82164035819007"
      },
      "geometry": {
        "type": "Point",
        "coordinates": [
          177.03091896148462,
          32.03523026666485
        ]
      }
    },
    {
      "type": "Feature",
      "properties": {
        "norad_id": 37387,
        "name": "RESOURCESAT-2",
        "group": "resource",
        "lat": 22.209647755045633,
        "lon": -111.9998353701619,
        "alt_km": 823.3167562070939,
        "timestamp": "2025-12-26T21:25:52.663258+00:00",
        "meta_object_name": "RESOURCESAT-2",
        "meta_object_id": "2011-015A",
        "meta_epoch": "2025-12-26T13:56:11.927040",
        "meta_mean_motion": 14.2159663,
        "meta_eccentricity": 0.00057489,
        "meta_inclination": 98.7857,
        "meta_ra_of_asc_node": 64.0692,
        "meta_arg_of_pericenter": 4.6253,
        "meta_mean_anomaly": 355.4976,
        "meta_ephemeris_type": 0,
        "meta_classification_type": "U",
        "meta_norad_cat_id": 37387,
        "meta_element_set_no": 999,
        "meta_rev_at_epoch": 76165,
        "meta_bstar": 7.659926e-05,
        "meta_mean_motion_dot": 1.23e-06,
        "meta_mean_motion_ddot": 0,
        "tle_line1": "1 37387U 11015A   25360.58069360  .00000123  00000+0  76599-4 0  9994",
        "tle_line2": "2 37387  98.7857  64.0692 0005748   4.6253 355.4976 14.21596630761656"
      },
      "geometry": {
        "type": "Point",
        "coordinates": [
          -111.9998353701619,
          22.209647755045633
        ]
      }
    }
  ]
}